{"type": "FeatureCollection", "features": [ {"type": "Feature", "properties": {"norad_id": 41774, "name": "SKYSAT-C3", "group": "resource", "lat": 6.735996705281236, "lon": -166.7164249789417, "alt_km": 436.44696399001714, "timestamp": "2025-12-04T07:39:35.827843+00:00", "meta": {"OBJECT_NAME": "SKYSAT-C3", "OBJECT_ID": "2016-058E", "EPOCH": "2025-12-03T13:48:07.589376", "MEAN_MOTION": 15.4390114, "ECCENTRICITY": 0.00013882, "INCLINATION": 96.931, "RA_OF_ASC_NODE": 11.7512, "ARG_OF_PERICENTER": 101.7573, "MEAN_ANOMALY": 258.3832, "EPHEMERIS_TYPE": 0, "CLASSIFICATION_TYPE": "U", "NORAD_CAT_ID": 41774, "ELEMENT_SET_NO": 999, "REV_AT_EPOCH": 51584, "BSTAR": 0.00057340168, "MEAN_MOTION_DOT": 0.00026017, "MEAN_MOTION_DDOT": 0}, "tle": {"line1": "1 41774U 16058E   25337.57508784  .00026017  00000+0  57340-3 0  9994", "line2": "2 41774  96.9310  11.7512 0001388 101.7573 258.3832 15.43901140515846"}}, "geometry": {"type": "Point", "coordinates": [-166.7164249789417, 6.735996705281236]}}, {"type": "Feature", "properties": {"norad_id": 41785, "name": "ALSAT 1B", "group": "resource", "lat": 52.72465707880637, "lon": -19.87847830366852, "alt_km": 647.5590227432476, "timestamp": "2025-12-04T07:39:35.827852+00:00", "meta": {"OBJECT_NAME": "ALSAT 1B", "OBJECT_ID": "2016-059C", "EPOCH": "2025-12-03T23:15:40.298688", "MEAN_MOTION": 14.72060476, "ECCENTRICITY": 0.00104073, "INCLINATION": 97.7819, "RA_OF_ASC_NODE": 350.1374, "ARG_OF_PERICENTER": 128.6697, "MEAN_ANOMALY": 231.5443, "EPHEMERIS_TYPE": 0, "CLASSIFICATION_TYPE": "U", "NORAD_CAT_ID": 41785, "ELEMENT_SET_NO": 999, "REV_AT_EPOCH": 49185, "BSTAR": 0.00012547311, "MEAN_MOTION_DOT": 7.42e-06, "MEAN_MOTION_DDOT": 0}, "tle": {"line1": "1 41785U 16059C   25337.96921642  .00000742  00000+0  12547-3 0  9999", "line2": "2 41785  97.7819 350.1374 0010407 128.6697 231.5443 14.72060476491858"}}, "geometry": {"type": "Point", "coordinates": [-19.87847830366852, 52.72465707880637]}}, {"type": "Feature", "properties": {"norad_id": 41787, "name": "PATHFINDER 1", "group": "resource", "lat": -79.97582464812812, "lon": 32.4577623987086, "alt_km": 697.8322165501095, "timestamp": "2025-12-04T07:39:35.827861+00:00", "meta": {"OBJECT_NAME": "PATHFINDER 1", "OBJECT_ID": "2016-059E", "EPOCH": "2025-12-03T23:51:34.293024", "MEAN_MOTION": 14.6729787, "ECCENTRICITY": 0.00299645, "INCLINATION": 97.8138, "RA_OF_ASC_NODE": 341.1737, "ARG_OF_PERICENTER": 107.7101, "MEAN_ANOMALY": 252.7379, "EPHEMERIS_TYPE": 0, "CLASSIFICATION_TYPE": "U", "NORAD_CAT_ID": 41787, "ELEMENT_SET_NO": 999, "REV_AT_EPOCH": 49108, "BSTAR": 0.00027412585, "MEAN_MOTION_DOT": 1.51e-05, "MEAN_MOTION_DDOT": 0}, "tle": {"line1": "1 41787U 16059E   25337.99414691  .00001510  00000+0  27413-3 0  9997", "line2": "2 41787  97.8138 341.1737 0029964 107.7101 252.7379 14.67297870491086"}}, "geometry": {"type": "Point", "coordinates": [32.4577623987086, -79.97582464812812]}}, {"type": "Feature", "properties": {"norad_id": 41790, "name": "SCATSAT 1", "group": "resource", "lat": -78.72545978664597, "lon": 80.8284493166116, "alt_km": 661.3878634870807, "timestamp": "2025-12-04T07:39:35.827870+00:00", "meta": {"OBJECT_NAME": "SCATSAT 1", "OBJECT_ID": "2016-059H", "EPOCH": "2025-12-03T17:25:13.017504", "MEAN_MOTION": 14.78884432, "ECCENTRICITY": 0.00557995, "INCLINATION": 98.1479, "RA_OF_ASC_NODE": 34.2837, "ARG_OF_PERICENTER": 156.6391, "MEAN_ANOMALY": 203.7374, "EPHEMERIS_TYPE": 0, "CLASSIFICATION_TYPE": "U", "NORAD_CAT_ID": 41790, "ELEMENT_SET_NO": 999, "REV_AT_EPOCH": 7269, "BSTAR": 0.00037933954, "MEAN_MOTION_DOT": 2.812e-05, "MEAN_MOTION_DDOT": 0}, "tle": {"line1": "1 41790U 16059H   25337.72584511  .00002812  00000+0  37934-3 0  9996", "line2": "2 41790  98.1479  34.2837 0055799 156.6391 203.7374 14.78884432 72693"}}, "geometry": {"type": "Point", "coordinates": [80.8284493166116, -78.72545978664597]}}, {"type": "Feature", "properties": {"norad_id": 41875, "name": "GOKTURK 1A", "group": "resource", "lat": 48.72039127468791, "lon": 60.1834278541282, "alt_km": 679.3323739153593, "timestamp": "2025-12-04T07:39:35.827879+00:00", "meta": {"OBJECT_NAME": "GOKTURK 1A", "OBJECT_ID": "2016-073A", "EPOCH": "2025-12-03T22:51:23.656896", "MEAN_MOTION": 14.6272895, "ECCENTRICITY": 0.00012254, "INCLINATION": 98.1431, "RA_OF_ASC_NODE": 230.4348, "ARG_OF_PERICENTER": 90.5478, "MEAN_ANOMALY": 269.5864, "EPHEMERIS_TYPE": 0, "CLASSIFICATION_TYPE": "U", "NORAD_CAT_ID": 41875, "ELEMENT_SET_NO": 999, "REV_AT_EPOCH": 48028, "BSTAR": 0.00021442402, "MEAN_MOTION_DOT": 1.046e-05, "MEAN_MOTION_DDOT": 0}, "tle": {"line1": "1 41875U 16073A   25337.95235714  .00001046  00000+0  21442-3 0  9994", "line2": "2 41875  98.1431 230.4348 0001225  90.5478 269.5864 14.62728950480286"}}, "geometry": {"type": "Point", "coordinates": [60.1834278541282, 48.72039127468791]}}, {"type": "Feature", "properties": {"norad_id": 41877, "name": "RESOURCESAT-2A", "group": "resource", "lat": -14.443614167195209, "lon": 50.50441396087233, "alt_km": 823.99442704997, "timestamp": "2025-12-04T07:39:35.827888+00:00", "meta": {"OBJECT_NAME": "RESOURCESAT-2A", "OBJECT_ID": "2016-074A", "EPOCH": "2025-12-03T23:16:57.201600", "MEAN_MOTION": 14.21593777, "ECCENTRICITY": 0.00011622, "INCLINATION": 98.7767, "RA_OF_ASC_NODE": 47.8769, "ARG_OF_PERICENTER": 298.8148, "MEAN_ANOMALY": 61.2912, "EPHEMERIS_TYPE": 0, "CLASSIFICATION_TYPE": "U", "NORAD_CAT_ID": 41877, "ELEMENT_SET_NO": 999, "REV_AT_EPOCH": 46656, "BSTAR": 0.0001768825, "MEAN_MOTION_DOT": 3.43e-06, "MEAN_MOTION_DDOT": 0}, "tle": {"line1": "1 41877U 16074A   25337.97010650  .00000343  00000+0  17688-3 0  9995", "line2": "2 41877  98.7767  47.8769 0001162 298.8148  61.2912 14.21593777466568"}}, "geometry": {"type": "Point", "coordinates": [50.50441396087233, -14.443614167195209]}}, {"type": "Feature", "properties": {"norad_id": 41948, "name": "CARTOSAT-2D", "group": "resource", "lat": -78.84128155477484, "lon": 77.43572200630521, "alt_km": 514.7880479848236, "timestamp": "2025-12-04T07:39:35.827897+00:00", "meta": {"OBJECT_NAME": "CARTOSAT-2D", "OBJECT_ID": "2017-008A", "EPOCH": "2025-12-04T00:06:57.621312", "MEAN_MOTION": 15.19353382, "ECCENTRICITY": 0.00048626, "INCLINATION": 97.4402, "RA_OF_ASC_NODE": 35.6355, "ARG_OF_PERICENTER": 195.6689, "MEAN_ANOMALY": 164.4396, "EPHEMERIS_TYPE": 0, "CLASSIFICATION_TYPE": "U", "NORAD_CAT_ID": 41948, "ELEMENT_SET_NO": 999, "REV_AT_EPOCH": 48794, "BSTAR": 3.196892e-06, "MEAN_MOTION_DOT": 0, "MEAN_MOTION_DDOT": 0}, "tle": {"line1": "1 41948U 17008A   25338.00483358  .00000000  00000+0  31969-5 0  9996", "line2": "2 41948  97.4402  35.6355 0004862 195.6689 164.4396 15.19353382487940"}}, "geometry": {"type": "Point", "coordinates": [77.43572200630521, -78.84128155477484]}}, {"type": "Feature", "properties": {"norad_id": 42063, "name": "SENTINEL-2B", "group": "resource", "lat": 34.63086189449538, "lon": 44.903121225931436, "alt_km": 786.3345961313144, "timestamp": "2025-12-04T07:39:35.827906+00:00", "meta": {"OBJECT_NAME": "SENTINEL-2B", "OBJECT_ID": "2017-013A", "EPOCH": "2025-12-03T23:06:17.614368", "MEAN_MOTION": 14.30810479, "ECCENTRICITY": 0.00011191, "INCLINATION": 98.5726, "RA_OF_ASC_NODE": 50.5316, "ARG_OF_PERICENTER": 98.0031, "MEAN_ANOMALY": 262.1279, "EPHEMERIS_TYPE": 0, "CLASSIFICATION_TYPE": "U", "NORAD_CAT_ID": 42063, "ELEMENT_SET_NO": 999, "REV_AT_EPOCH": 45672, "BSTAR": 0.00013119099, "MEAN_MOTION_DOT": 3e-06, "MEAN_MOTION_DDOT": 0}, "tle": {"line1": "1 42063U 17013A   25337.96270387  .00000300  00000+0  13119-3 0  9999", "line2": "2 42063  98.5726  50.5316 0001119  98.0031 262.1279 14.30810479456727"}}, "geometry": {"type": "Point", "coordinates": [44.903121225931436, 34.63086189449538]}}, {"type": "Feature", "properties": {"norad_id": 42767, "name": "CARTOSAT-2E", "group": "resource", "lat": -7.894014716851173, "lon": -145.02486162636117, "alt_km": 512.4804663727864, "timestamp": "2025-12-04T07:39:35.827915+00:00", "meta": {"OBJECT_NAME": "CARTOSAT-2E", "OBJECT_ID": "2017-036C", "EPOCH": "2025-12-03T22:55:53.108256", "MEAN_MOTION": 15.19178429, "ECCENTRICITY": 0.00022874, "INCLINATION": 97.4575, "RA_OF_ASC_NODE": 35.6568, "ARG_OF_PERICENTER": 283.6083, "MEAN_ANOMALY": 76.4897, "EPHEMERIS_TYPE": 0, "CLASSIFICATION_TYPE": "U", "NORAD_CAT_ID": 42767, "ELEMENT_SET_NO": 999, "REV_AT_EPOCH": 46850, "BSTAR": 0.00043615593, "MEAN_MOTION_DOT": 9.111e-05, "MEAN_MOTION_DDOT": 0}, "tle": {"line1": "1 42767U 17036C   25337.95547579  .00009111  00000+0  43616-3 0  9998", "line2": "2 42767  97.4575  35.6568 0002287 283.6083  76.4897 15.19178429468508"}}, "geometry": {"type": "Point", "coordinates": [-145.02486162636117, -7.894014716851173]}}, {"type": "Feature", "properties": {"norad_id": 42920, "name": "FORMOSAT-5", "group": "resource", "lat": 33.16966115830035, "lon": -121.75591536155066, "alt_km": 727.646463058999, "timestamp": "2025-12-04T07:39:35.827925+00:00", "meta": {"OBJECT_NAME": "FORMOSAT-5", "OBJECT_ID": "2017-049A", "EPOCH": "2025-12-03T21:03:26.443296", "MEAN_MOTION": 14.50997002, "ECCENTRICITY": 0.00102922, "INCLINATION": 98.2462, "RA_OF_ASC_NODE": 52.3719, "ARG_OF_PERICENTER": 325.1836, "MEAN_ANOMALY": 34.8685, "EPHEMERIS_TYPE": 0, "CLASSIFICATION_TYPE": "U", "NORAD_CAT_ID": 42920, "ELEMENT_SET_NO": 999, "REV_AT_EPOCH": 43835, "BSTAR": 0.00013803205, "MEAN_MOTION_DOT": 5.02e-06, "MEAN_MOTION_DDOT": 0}, "tle": {"line1": "1 42920U 17049A   25337.87738939  .00000502  00000+0  13803-3 0  9996", "line2": "2 42920  98.2462  52.3719 0010292 325.1836  34.8685 14.50997002438353"}}, "geometry": {"type": "Point", "coordinates": [-121.75591536155066, 33.16966115830035]}}]}